[{"OBJECT_NAME":"ONEWEB-0101","OBJECT_ID":"2021-025H","EPOCH":"2026-01-26T20:01:07.148928","MEAN_MOTION":13.13469761,"ECCENTRICITY":0.00016772,"INCLINATION":87.9014,"RA_OF_ASC_NODE":348.3246,"ARG_OF_PERICENTER":85.4175,"MEAN_ANOMALY":274.7146,"EPHEMERIS_TYPE":0,"CLASSIFICATION_TYPE":"U","NORAD_CAT_ID":48049,"ELEMENT_SET_NO":999,"REV_AT_EPOCH":23494,"BSTAR":-0.0010060689,"MEAN_MOTION_DOT":-3.55e-6,"MEAN_MOTION_DDOT":0},{"OBJECT_NAME":"ONEWEB-0113","OBJECT_ID":"2021-025J","EPOCH":"2026-01-27T06:57:00.901728","MEAN_MOTION":13.13984058,"ECCENTRICITY":0.00019441,"INCLINATION":87.9022,"RA_OF_ASC_NODE":348.1577,"ARG_OF_PERICENTER":74.7092,"MEAN_ANOMALY":285.4252,"EPHEMERIS_TYPE":0,"CLASSIFICATION_TYPE":"U","NORAD_CAT_ID":48050,"ELEMENT_SET_NO":999,"REV_AT_EPOCH":23510,"BSTAR":-0.0018881525,"MEAN_MOTION_DOT":-6.82e-6,"MEAN_MOTION_DDOT":0},{"OBJECT_NAME":"ONEWEB-0112","OBJECT_ID":"2021-025K","EPOCH":"2026-01-27T06:10:33.014784","MEAN_MOTION":13.1346931,"ECCENTRICITY":0.00016415,"INCLINATION":87.9021,"RA_OF_ASC_NODE":348.208,"ARG_OF_PERICENTER":87.8453,"MEAN_ANOMALY":272.2864,"EPHEMERIS_TYPE":0,"CLASSIFICATION_TYPE":"U","NORAD_CAT_ID":48051,"ELEMENT_SET_NO":999,"REV_AT_EPOCH":23509,"BSTAR":0.0010567458,"MEAN_MOTION_DOT":3.99e-6,"MEAN_MOTION_DDOT":0},{"OBJECT_NAME":"ONEWEB-0156","OBJECT_ID":"2021-025L","EPOCH":"2026-01-27T06:22:43.266720","MEAN_MOTION":13.13468497,"ECCENTRICITY":0.0001852,"INCLINATION":87.9022,"RA_OF_ASC_NODE":348.2176,"ARG_OF_PERICENTER":84.938,"MEAN_ANOMALY":275.1961,"EPHEMERIS_TYPE":0,"CLASSIFICATION_TYPE":"U","NORAD_CAT_ID":48052,"ELEMENT_SET_NO":999,"REV_AT_EPOCH":23507,"BSTAR":0.00092048394,"MEAN_MOTION_DOT":3.49e-6,"MEAN_MOTION_DDOT":0},{"OBJECT_NAME":"ONEWEB-0161","OBJECT_ID":"2021-025M","EPOCH":"2026-01-27T07:35:52.080000","MEAN_MOTION":13.13470278,"ECCENTRICITY":0.00018779,"INCLINATION":87.9015,"RA_OF_ASC_NODE":348.2201,"ARG_OF_PERICENTER":87.1717,"MEAN_ANOMALY":272.9627,"EPHEMERIS_TYPE":0,"CLASSIFICATION_TYPE":"U","NORAD_CAT_ID":48053,"ELEMENT_SET_NO":999,"REV_AT_EPOCH":23501,"BSTAR":0.00015441065,"MEAN_MOTION_DOT":6.9e-7,"MEAN_MOTION_DDOT":0},{"OBJECT_NAME":"ONEWEB-0158","OBJECT_ID":"2021-025N","EPOCH":"2026-01-27T06:37:22.175040","MEAN_MOTION":13.13470191,"ECCENTRICITY":0.00015788,"INCLINATION":87.9024,"RA_OF_ASC_NODE":348.2154,"ARG_OF_PERICENTER":72.6305,"MEAN_ANOMALY":287.4996,"EPHEMERIS_TYPE":0,"CLASSIFICATION_TYPE":"U","NORAD_CAT_ID":48054,"ELEMENT_SET_NO":999,"REV_AT_EPOCH":23513,"BSTAR":0.0003185766,"MEAN_MOTION_DOT":1.29e-6,"MEAN_MOTION_DDOT":0},{"OBJECT_NAME":"ONEWEB-0157","OBJECT_ID":"2021-025P","EPOCH":"2026-01-27T07:13:55.521984","MEAN_MOTION":13.13471233,"ECCENTRICITY":0.00018268,"INCLINATION":87.9021,"RA_OF_ASC_NODE":348.2158,"ARG_OF_PERICENTER":94.5128,"MEAN_ANOMALY":265.621,"EPHEMERIS_TYPE":0,"CLASSIFICATION_TYPE":"U","NORAD_CAT_ID":48055,"ELEMENT_SET_NO":999,"REV_AT_EPOCH":23507,"BSTAR":-0.0007714817,"MEAN_MOTION_DOT":-2.69e-6,"MEAN_MOTION_DDOT":0},{"OBJECT_NAME":"ONEWEB-0162","OBJECT_ID":"2021-025Q","EPOCH":"2026-01-27T06:39:36.115776","MEAN_MOTION":13.13468896,"ECCENTRICITY":0.00019523,"INCLINATION":87.9026,"RA_OF_ASC_NODE":348.224,"ARG_OF_PERICENTER":82.3252,"MEAN_ANOMALY":277.8099,"EPHEMERIS_TYPE":0,"CLASSIFICATION_TYPE":"U","NORAD_CAT_ID":48056,"ELEMENT_SET_NO":999,"REV_AT_EPOCH":23504,"BSTAR":6.9615307e-5,"MEAN_MOTION_DOT":3.8e-7,"MEAN_MOTION_DDOT":0},{"OBJECT_NAME":"ONEWEB-0155","OBJECT_ID":"2021-025R","EPOCH":"2026-01-27T06:49:31.810944","MEAN_MOTION":13.13468801,"ECCENTRICITY":0.00016492,"INCLINATION":87.9019,"RA_OF_ASC_NODE":348.2249,"ARG_OF_PERICENTER":86.6666,"MEAN_ANOMALY":273.4652,"EPHEMERIS_TYPE":0,"CLASSIFICATION_TYPE":"U","NORAD_CAT_ID":48057,"ELEMENT_SET_NO":999,"REV_AT_EPOCH":23518,"BSTAR":-0.0001119984,"MEAN_MOTION_DOT":-2.8e-7,"MEAN_MOTION_DDOT":0},{"OBJECT_NAME":"ONEWEB-0149","OBJECT_ID":"2021-025S","EPOCH":"2026-01-27T07:21:14.737248","MEAN_MOTION":13.13470809,"ECCENTRICITY":0.00020024,"INCLINATION":87.9022,"RA_OF_ASC_NODE":348.2151,"ARG_OF_PERICENTER":82.3732,"MEAN_ANOMALY":277.7624,"EPHEMERIS_TYPE":0,"CLASSIFICATION_TYPE":"U","NORAD_CAT_ID":48058,"ELEMENT_SET_NO":999,"REV_AT_EPOCH":23499,"BSTAR":-0.00048635472,"MEAN_MOTION_DOT":-1.65e-6,"MEAN_MOTION_DDOT":0},{"OBJECT_NAME":"ONEWEB-0148","OBJECT_ID":"2021-025T","EPOCH":"2026-01-27T06:27:37.441440","MEAN_MOTION":13.13469845,"ECCENTRICITY":0.00023463,"INCLINATION":87.9015,"RA_OF_ASC_NODE":348.2394,"ARG_OF_PERICENTER":86.0034,"MEAN_ANOMALY":274.1364,"EPHEMERIS_TYPE":0,"CLASSIFICATION_TYPE":"U","NORAD_CAT_ID":48059,"ELEMENT_SET_NO":999,"REV_AT_EPOCH":23511,"BSTAR":0.0005451827,"MEAN_MOTION_DOT":2.12e-6,"MEAN_MOTION_DDOT":0},{"OBJECT_NAME":"ONEWEB-0160","OBJECT_ID":"2021-025U","EPOCH":"2026-01-27T06:51:59.174784","MEAN_MOTION":13.13470432,"ECCENTRICITY":0.00017799,"INCLINATION":87.9016,"RA_OF_ASC_NODE":348.2333,"ARG_OF_PERICENTER":56.8015,"MEAN_ANOMALY":303.3285,"EPHEMERIS_TYPE":0,"CLASSIFICATION_TYPE":"U","NORAD_CAT_ID":48060,"ELEMENT_SET_NO":999,"REV_AT_EPOCH":23506,"BSTAR":-0.00045977438,"MEAN_MOTION_DOT":-1.55e-6,"MEAN_MOTION_DDOT":0},{"OBJECT_NAME":"ONEWEB-0163","OBJECT_ID":"2021-025V","EPOCH":"2026-01-27T06:30:02.534688","MEAN_MOTION":13.13468646,"ECCENTRICITY":0.00017719,"INCLINATION":87.9022,"RA_OF_ASC_NODE":348.2262,"ARG_OF_PERICENTER":92.1949,"MEAN_ANOMALY":267.9383,"EPHEMERIS_TYPE":0,"CLASSIFICATION_TYPE":"U","NORAD_CAT_ID":48061,"ELEMENT_SET_NO":999,"REV_AT_EPOCH":23518,"BSTAR":0.00071240129,"MEAN_MOTION_DOT":2.73e-6,"MEAN_MOTION_DDOT":0},{"OBJECT_NAME":"ONEWEB-0159","OBJECT_ID":"2021-025W","EPOCH":"2026-01-27T06:17:52.450368","MEAN_MOTION":13.13470616,"ECCENTRICITY":0.00019254,"INCLINATION":87.9023,"RA_OF_ASC_NODE":348.2123,"ARG_OF_PERICENTER":88.0318,"MEAN_ANOMALY":272.1032,"EPHEMERIS_TYPE":0,"CLASSIFICATION_TYPE":"U","NORAD_CAT_ID":48062,"ELEMENT_SET_NO":999,"REV_AT_EPOCH":23510,"BSTAR":0.00088673507,"MEAN_MOTION_DOT":3.37e-6,"MEAN_MOTION_DDOT":0},{"OBJECT_NAME":"ONEWEB-0164","OBJECT_ID":"2021-025X","EPOCH":"2026-01-27T05:51:01.435104","MEAN_MOTION":13.13468062,"ECCENTRICITY":0.00017331,"INCLINATION":87.9024,"RA_OF_ASC_NODE":348.2224,"ARG_OF_PERICENTER":78.9701,"MEAN_ANOMALY":281.1623,"EPHEMERIS_TYPE":0,"CLASSIFICATION_TYPE":"U","NORAD_CAT_ID":48063,"ELEMENT_SET_NO":999,"REV_AT_EPOCH":23508,"BSTAR":-4.5041076e-5,"MEAN_MOTION_DOT":-4.0e-8,"MEAN_MOTION_DDOT":0},{"OBJECT_NAME":"ONEWEB-0167","OBJECT_ID":"2021-025Y","EPOCH":"2026-01-27T06:31:15.389760","MEAN_MOTION":13.13471354,"ECCENTRICITY":0.00012854,"INCLINATION":87.9015,"RA_OF_ASC_NODE":348.2403,"ARG_OF_PERICENTER":101.3256,"MEAN_ANOMALY":258.8018,"EPHEMERIS_TYPE":0,"CLASSIFICATION_TYPE":"U","NORAD_CAT_ID":48064,"ELEMENT_SET_NO":999,"REV_AT_EPOCH":23507,"BSTAR":0.00070518057,"MEAN_MOTION_DOT":2.7e-6,"MEAN_MOTION_DDOT":0},{"OBJECT_NAME":"ONEWEB-0166","OBJECT_ID":"2021-025Z","EPOCH":"2026-01-27T07:04:10.479072","MEAN_MOTION":13.13470833,"ECCENTRICITY":0.00019544,"INCLINATION":87.9026,"RA_OF_ASC_NODE":348.1945,"ARG_OF_PERICENTER":82.8587,"MEAN_ANOMALY":277.2764,"EPHEMERIS_TYPE":0,"CLASSIFICATION_TYPE":"U","NORAD_CAT_ID":48065,"ELEMENT_SET_NO":999,"REV_AT_EPOCH":23515,"BSTAR":-0.00072189281,"MEAN_MOTION_DOT":-2.51e-6,"MEAN_MOTION_DDOT":0},{"OBJECT_NAME":"ONEWEB-0151","OBJECT_ID":"2021-025AA","EPOCH":"2026-01-27T07:06:36.640224","MEAN_MOTION":13.13470339,"ECCENTRICITY":0.00016469,"INCLINATION":87.9028,"RA_OF_ASC_NODE":348.2225,"ARG_OF_PERICENTER":83.2869,"MEAN_ANOMALY":276.8448,"EPHEMERIS_TYPE":0,"CLASSIFICATION_TYPE":"U","NORAD_CAT_ID":48066,"ELEMENT_SET_NO":999,"REV_AT_EPOCH":23509,"BSTAR":-0.0007447406,"MEAN_MOTION_DOT":-2.59e-6,"MEAN_MOTION_DDOT":0},{"OBJECT_NAME":"ONEWEB-0170","OBJECT_ID":"2021-025AB","EPOCH":"2026-01-27T07:18:47.624832","MEAN_MOTION":13.13470559,"ECCENTRICITY":0.00014314,"INCLINATION":87.9021,"RA_OF_ASC_NODE":348.2227,"ARG_OF_PERICENTER":70.2488,"MEAN_ANOMALY":289.8796,"EPHEMERIS_TYPE":0,"CLASSIFICATION_TYPE":"U","NORAD_CAT_ID":48067,"ELEMENT_SET_NO":999,"REV_AT_EPOCH":23505,"BSTAR":-0.00060161226,"MEAN_MOTION_DOT":-2.07e-6,"MEAN_MOTION_DDOT":0},{"OBJECT_NAME":"ONEWEB-0168","OBJECT_ID":"2021-025AC","EPOCH":"2026-01-27T06:56:51.839232","MEAN_MOTION":13.13470343,"ECCENTRICITY":0.00018362,"INCLINATION":87.9022,"RA_OF_ASC_NODE":348.2151,"ARG_OF_PERICENTER":88.3682,"MEAN_ANOMALY":271.7658,"EPHEMERIS_TYPE":0,"CLASSIFICATION_TYPE":"U","NORAD_CAT_ID":48068,"ELEMENT_SET_NO":999,"REV_AT_EPOCH":23506,"BSTAR":-0.00054057257,"MEAN_MOTION_DOT":-1.85e-6,"MEAN_MOTION_DDOT":0},{"OBJECT_NAME":"ONEWEB-0173","OBJECT_ID":"2021-025AD","EPOCH":"2026-01-27T06:44:40.497792","MEAN_MOTION":13.13469154,"ECCENTRICITY":0.00016867,"INCLINATION":87.9027,"RA_OF_ASC_NODE":348.2233,"ARG_OF_PERICENTER":95.8965,"MEAN_ANOMALY":264.2356,"EPHEMERIS_TYPE":0,"CLASSIFICATION_TYPE":"U","NORAD_CAT_ID":48069,"ELEMENT_SET_NO":999,"REV_AT_EPOCH":23530,"BSTAR":-9.7183362e-5,"MEAN_MOTION_DOT":-2.3e-7,"MEAN_MOTION_DDOT":0},{"OBJECT_NAME":"ONEWEB-0171","OBJECT_ID":"2021-025AE","EPOCH":"2026-01-27T07:38:17.990592","MEAN_MOTION":13.13470876,"ECCENTRICITY":0.00016385,"INCLINATION":87.9007,"RA_OF_ASC_NODE":348.2325,"ARG_OF_PERICENTER":82.9147,"MEAN_ANOMALY":277.2169,"EPHEMERIS_TYPE":0,"CLASSIFICATION_TYPE":"U","NORAD_CAT_ID":48070,"ELEMENT_SET_NO":999,"REV_AT_EPOCH":23512,"BSTAR":-1.2426547e-5,"MEAN_MOTION_DOT":8.0e-8,"MEAN_MOTION_DDOT":0},{"OBJECT_NAME":"ONEWEB-0172","OBJECT_ID":"2021-025AF","EPOCH":"2026-01-27T07:09:03.276576","MEAN_MOTION":13.13470384,"ECCENTRICITY":0.00016426,"INCLINATION":87.9018,"RA_OF_ASC_NODE":348.2234,"ARG_OF_PERICENTER":85.4354,"MEAN_ANOMALY":274.6963,"EPHEMERIS_TYPE":0,"CLASSIFICATION_TYPE":"U","NORAD_CAT_ID":48071,"ELEMENT_SET_NO":999,"REV_AT_EPOCH":23601,"BSTAR":-0.00057378392,"MEAN_MOTION_DOT":-1.97e-6,"MEAN_MOTION_DDOT":0}]
